{"type": "FeatureCollection", "features": [ {"type": "Feature", "properties": {"norad_id": 49810, "name": "GSAT0224 (GALILEO 28)", "group": "gnss", "lat": 57.007135675207664, "lon": 69.81065385935123, "alt_km": 23227.187193865524, "timestamp": "2025-12-09T11:33:55.043021+00:00", "meta": {"OBJECT_NAME": "GSAT0224 (GALILEO 28)", "OBJECT_ID": "2021-116B", "EPOCH": "2025-12-07T13:56:35.698272", "MEAN_MOTION": 1.7047563, "ECCENTRICITY": 0.00040182, "INCLINATION": 57.2213, "RA_OF_ASC_NODE": 346.8506, "ARG_OF_PERICENTER": 254.5241, "MEAN_ANOMALY": 105.0474, "EPHEMERIS_TYPE": 0, "CLASSIFICATION_TYPE": "U", "NORAD_CAT_ID": 49810, "ELEMENT_SET_NO": 999, "REV_AT_EPOCH": 2493, "BSTAR": 0, "MEAN_MOTION_DOT": -8.4e-07, "MEAN_MOTION_DDOT": 0}, "tle": {"line1": "1 49810U 21116B   25341.58096873 -.00000084  00000+0  00000+0 0  9995", "line2": "2 49810  57.2213 346.8506 0004018 254.5241 105.0474  1.70475630 24934"}}, "geometry": {"type": "Point", "coordinates": [69.81065385935123, 57.007135675207664]}}, {"type": "Feature", "properties": {"norad_id": 52984, "name": "COSMOS 2557 (706K)", "group": "gnss", "lat": -31.215847202618523, "lon": -55.722038644473045, "alt_km": 19110.66376405079, "timestamp": "2025-12-09T11:33:55.043038+00:00", "meta": {"OBJECT_NAME": "COSMOS 2557 (706K)", "OBJECT_ID": "2022-075A", "EPOCH": "2025-12-07T04:21:00.419904", "MEAN_MOTION": 2.13101754, "ECCENTRICITY": 0.00137049, "INCLINATION": 64.4129, "RA_OF_ASC_NODE": 321.247, "ARG_OF_PERICENTER": 276.9, "MEAN_ANOMALY": 82.939, "EPHEMERIS_TYPE": 0, "CLASSIFICATION_TYPE": "U", "NORAD_CAT_ID": 52984, "ELEMENT_SET_NO": 999, "REV_AT_EPOCH": 2662, "BSTAR": 0, "MEAN_MOTION_DOT": -5.2e-07, "MEAN_MOTION_DDOT": 0}, "tle": {"line1": "1 52984U 22075A   25341.18125486 -.00000052  00000+0  00000+0 0  9990", "line2": "2 52984  64.4129 321.2470 0013704 276.9000  82.9390  2.13101754 26625"}}, "geometry": {"type": "Point", "coordinates": [-55.722038644473045, -31.215847202618523]}}, {"type": "Feature", "properties": {"norad_id": 54031, "name": "COSMOS 2559 (707K)", "group": "gnss", "lat": 61.22539991734416, "lon": 80.38840961386539, "alt_km": 19122.70611978163, "timestamp": "2025-12-09T11:33:55.043055+00:00", "meta": {"OBJECT_NAME": "COSMOS 2559 (707K)", "OBJECT_ID": "2022-130A", "EPOCH": "2025-12-08T21:03:33.189408", "MEAN_MOTION": 2.13101268, "ECCENTRICITY": 0.0011908, "INCLINATION": 64.3845, "RA_OF_ASC_NODE": 321.277, "ARG_OF_PERICENTER": 192.5862, "MEAN_ANOMALY": 167.3811, "EPHEMERIS_TYPE": 0, "CLASSIFICATION_TYPE": "U", "NORAD_CAT_ID": 54031, "ELEMENT_SET_NO": 999, "REV_AT_EPOCH": 2463, "BSTAR": 0, "MEAN_MOTION_DOT": -5.1e-07, "MEAN_MOTION_DDOT": 0}, "tle": {"line1": "1 54031U 22130A   25342.87746747 -.00000051  00000+0  00000+0 0  9992", "line2": "2 54031  64.3845 321.2770 0011908 192.5862 167.3811  2.13101268 24635"}}, "geometry": {"type": "Point", "coordinates": [80.38840961386539, 61.22539991734416]}}, {"type": "Feature", "properties": {"norad_id": 54377, "name": "COSMOS 2564 (761)", "group": "gnss", "lat": -38.269252293382294, "lon": 40.88236019806285, "alt_km": 19113.613646178794, "timestamp": "2025-12-09T11:33:55.043072+00:00", "meta": {"OBJECT_NAME": "COSMOS 2564 (761)", "OBJECT_ID": "2022-161A", "EPOCH": "2025-12-06T20:16:19.958016", "MEAN_MOTION": 2.13101987, "ECCENTRICITY": 0.0008674, "INCLINATION": 64.7378, "RA_OF_ASC_NODE": 199.0949, "ARG_OF_PERICENTER": 205.6872, "MEAN_ANOMALY": 154.3558, "EPHEMERIS_TYPE": 0, "CLASSIFICATION_TYPE": "U", "NORAD_CAT_ID": 54377, "ELEMENT_SET_NO": 999, "REV_AT_EPOCH": 2353, "BSTAR": 0, "MEAN_MOTION_DOT": 6.7e-07, "MEAN_MOTION_DDOT": 0}, "tle": {"line1": "1 54377U 22161A   25340.84467544  .00000067  00000+0  00000+0 0  9995", "line2": "2 54377  64.7378 199.0949 0008674 205.6872 154.3558  2.13101987 23535"}}, "geometry": {"type": "Point", "coordinates": [40.88236019806285, -38.269252293382294]}}, {"type": "Feature", "properties": {"norad_id": 55268, "name": "GPS BIII-6  (PRN 28)", "group": "gnss", "lat": -7.42562092290846, "lon": 150.74541350102768, "alt_km": 20174.57816639254, "timestamp": "2025-12-09T11:33:55.043090+00:00", "meta": {"OBJECT_NAME": "GPS BIII-6  (PRN 28)", "OBJECT_ID": "2023-009A", "EPOCH": "2025-12-08T05:52:26.989248", "MEAN_MOTION": 2.00555991, "ECCENTRICITY": 0.0003615, "INCLINATION": 55.1046, "RA_OF_ASC_NODE": 156.0217, "ARG_OF_PERICENTER": 356.7859, "MEAN_ANOMALY": 180.9144, "EPHEMERIS_TYPE": 0, "CLASSIFICATION_TYPE": "U", "NORAD_CAT_ID": 55268, "ELEMENT_SET_NO": 999, "REV_AT_EPOCH": 2141, "BSTAR": 0, "MEAN_MOTION_DOT": 5.9e-07, "MEAN_MOTION_DDOT": 0}, "tle": {"line1": "1 55268U 23009A   25342.24475682  .00000059  00000+0  00000+0 0  9996", "line2": "2 55268  55.1046 156.0217 0003615 356.7859 180.9144  2.00555991 21410"}}, "geometry": {"type": "Point", "coordinates": [150.74541350102768, -7.42562092290846]}}, {"type": "Feature", "properties": {"norad_id": 56564, "name": "BEIDOU-3 G4 (C62)", "group": "gnss", "lat": 0.7906689228784606, "lon": 51.986739915726254, "alt_km": 35793.515012575226, "timestamp": "2025-12-09T11:33:55.043119+00:00", "meta": {"OBJECT_NAME": "BEIDOU-3 G4 (C62)", "OBJECT_ID": "2023-066A", "EPOCH": "2025-12-09T05:16:38.690400", "MEAN_MOTION": 1.00271218, "ECCENTRICITY": 0.000303, "INCLINATION": 0.8226, "RA_OF_ASC_NODE": 301.7802, "ARG_OF_PERICENTER": 235.5487, "MEAN_ANOMALY": 140.1135, "EPHEMERIS_TYPE": 0, "CLASSIFICATION_TYPE": "U", "NORAD_CAT_ID": 56564, "ELEMENT_SET_NO": 999, "REV_AT_EPOCH": 949, "BSTAR": 0, "MEAN_MOTION_DOT": -1.09e-06, "MEAN_MOTION_DDOT": 0}, "tle": {"line1": "1 56564U 23066A   25343.21989225 -.00000109  00000+0  00000+0 0  9997", "line2": "2 56564   0.8226 301.7802 0003030 235.5487 140.1135  1.00271218  9496"}}, "geometry": {"type": "Point", "coordinates": [51.986739915726254, 0.7906689228784606]}}, {"type": "Feature", "properties": {"norad_id": 56759, "name": "NVS-01 (IRNSS-1J)", "group": "gnss", "lat": 2.034296020589, "lon": 21.490202721173098, "alt_km": 35806.90250231515, "timestamp": "2025-12-09T11:33:55.043139+00:00", "meta": {"OBJECT_NAME": "NVS-01 (IRNSS-1J)", "OBJECT_ID": "2023-076A", "EPOCH": "2025-12-09T01:44:38.707008", "MEAN_MOTION": 1.00264904, "ECCENTRICITY": 0.0008666, "INCLINATION": 2.627, "RA_OF_ASC_NODE": 251.7336, "ARG_OF_PERICENTER": 8.3291, "MEAN_ANOMALY": 333.6082, "EPHEMERIS_TYPE": 0, "CLASSIFICATION_TYPE": "U", "NORAD_CAT_ID": 56759, "ELEMENT_SET_NO": 999, "REV_AT_EPOCH": 920, "BSTAR": 0, "MEAN_MOTION_DOT": -3.34e-06, "MEAN_MOTION_DDOT": 0}, "tle": {"line1": "1 56759U 23076A   25343.07267022 -.00000334  00000+0  00000+0 0  9992", "line2": "2 56759   2.6270 251.7336 0008666   8.3291 333.6082  1.00264904  9209"}}, "geometry": {"type": "Point", "coordinates": [21.490202721173098, 2.034296020589]}}, {"type": "Feature", "properties": {"norad_id": 57517, "name": "COSMOS 2569 (703K)", "group": "gnss", "lat": -29.405171233931387, "lon": -85.88393358875156, "alt_km": 19126.608336222802, "timestamp": "2025-12-09T11:33:55.043158+00:00", "meta": {"OBJECT_NAME": "COSMOS 2569 (703K)", "OBJECT_ID": "2023-114A", "EPOCH": "2025-12-07T19:07:05.045952", "MEAN_MOTION": 2.13103857, "ECCENTRICITY": 0.00103488, "INCLINATION": 65.1916, "RA_OF_ASC_NODE": 79.0806, "ARG_OF_PERICENTER": 287.0317, "MEAN_ANOMALY": 72.8691, "EPHEMERIS_TYPE": 0, "CLASSIFICATION_TYPE": "U", "NORAD_CAT_ID": 57517, "ELEMENT_SET_NO": 999, "REV_AT_EPOCH": 1818, "BSTAR": 0, "MEAN_MOTION_DOT": -1.2e-07, "MEAN_MOTION_DDOT": 0}, "tle": {"line1": "1 57517U 23114A   25341.79658618 -.00000012  00000+0  00000+0 0  9993", "line2": "2 57517  65.1916  79.0806 0010348 287.0317  72.8691  2.13103857 18180"}}, "geometry": {"type": "Point", "coordinates": [-85.88393358875156, -29.405171233931387]}}, {"type": "Feature", "properties": {"norad_id": 58654, "name": "BEIDOU-3 M28 (C50)", "group": "gnss", "lat": 1.6033810597607265, "lon": -112.37693368939804, "alt_km": 21528.270835136176, "timestamp": "2025-12-09T11:33:55.043170+00:00", "meta": {"OBJECT_NAME": "BEIDOU-3 M28 (C50)", "OBJECT_ID": "2023-207A", "EPOCH": "2025-12-07T14:31:49.044864", "MEAN_MOTION": 1.86229593, "ECCENTRICITY": 0.0002234, "INCLINATION": 55.5801, "RA_OF_ASC_NODE": 68.7753, "ARG_OF_PERICENTER": 268.0479, "MEAN_ANOMALY": 91.9457, "EPHEMERIS_TYPE": 0, "CLASSIFICATION_TYPE": "U", "NORAD_CAT_ID": 58654, "ELEMENT_SET_NO": 999, "REV_AT_EPOCH": 1327, "BSTAR": 0, "MEAN_MOTION_DOT": -4.6e-07, "MEAN_MOTION_DDOT": 0}, "tle": {"line1": "1 58654U 23207A   25341.60542876 -.00000046  00000+0  00000+0 0  9994", "line2": "2 58654  55.5801  68.7753 0002234 268.0479  91.9457  1.86229593 13270"}}, "geometry": {"type": "Point", "coordinates": [-112.37693368939804, 1.6033810597607265]}}, {"type": "Feature", "properties": {"norad_id": 58655, "name": "BEIDOU-3 M26 (C48)", "group": "gnss", "lat": -36.61325543660293, "lon": 38.13100431161859, "alt_km": 21527.400977288613, "timestamp": "2025-12-09T11:33:55.043180+00:00", "meta": {"OBJECT_NAME": "BEIDOU-3 M26 (C48)", "OBJECT_ID": "2023-207B", "EPOCH": "2025-12-08T11:26:54.595392", "MEAN_MOTION": 1.8623113, "ECCENTRICITY": 0.00036549, "INCLINATION": 55.583, "RA_OF_ASC_NODE": 68.7321, "ARG_OF_PERICENTER": 253.8899, "MEAN_ANOMALY": 106.0912, "EPHEMERIS_TYPE": 0, "CLASSIFICATION_TYPE": "U", "NORAD_CAT_ID": 58655, "ELEMENT_SET_NO": 999, "REV_AT_EPOCH": 1327, "BSTAR": 0, "MEAN_MOTION_DOT": -4.7e-07, "MEAN_MOTION_DDOT": 0}, "tle": {"line1": "1 58655U 23207B   25342.47702078 -.00000047  00000+0  00000+0 0  9994", "line2": "2 58655  55.5830  68.7321 0003654 253.8899 106.0912  1.86231130 13273"}}, "geometry": {"type": "Point", "coordinates": [38.13100431161859, -36.61325543660293]}}]}